{"fetched_at":"2026-07-20T18:29:36.622Z","source":"https://celestrak.org/NORAD/elements/gp.php?NAME=O3B&FORMAT=JSON","constellation":"o3b-mpower","records":[{"OBJECT_NAME":"O3B MPOWER F1","OBJECT_ID":"2022-174A","EPOCH":"2026-07-20T03:02:10.303296","CLASSIFICATION_TYPE":"U","MEAN_MOTION":5.00114762,"ECCENTRICITY":0.00066688,"INCLINATION":0.0487,"RA_OF_ASC_NODE":339.0583,"ARG_OF_PERICENTER":149.8996,"MEAN_ANOMALY":233.0644,"EPHEMERIS_TYPE":0,"NORAD_CAT_ID":54755,"ELEMENT_SET_NO":999,"REV_AT_EPOCH":6700,"BSTAR":0,"MEAN_MOTION_DOT":-2.4e-7,"MEAN_MOTION_DDOT":0},{"OBJECT_NAME":"O3B MPOWER F2","OBJECT_ID":"2022-174B","EPOCH":"2026-07-20T02:12:39.746880","CLASSIFICATION_TYPE":"U","MEAN_MOTION":5.00114967,"ECCENTRICITY":0.00057739,"INCLINATION":0.0446,"RA_OF_ASC_NODE":339.7573,"ARG_OF_PERICENTER":133.0824,"MEAN_ANOMALY":247.2182,"EPHEMERIS_TYPE":0,"NORAD_CAT_ID":54756,"ELEMENT_SET_NO":999,"REV_AT_EPOCH":6709,"BSTAR":0,"MEAN_MOTION_DOT":-2.4e-7,"MEAN_MOTION_DDOT":0},{"OBJECT_NAME":"O3B MPOWER F4","OBJECT_ID":"2023-059A","EPOCH":"2026-07-19T18:09:27.655776","CLASSIFICATION_TYPE":"U","MEAN_MOTION":5.00115356,"ECCENTRICITY":0.00077358,"INCLINATION":0.0628,"RA_OF_ASC_NODE":349.215,"ARG_OF_PERICENTER":131.7669,"MEAN_ANOMALY":239.0909,"EPHEMERIS_TYPE":0,"NORAD_CAT_ID":56367,"ELEMENT_SET_NO":999,"REV_AT_EPOCH":6023,"BSTAR":0,"MEAN_MOTION_DOT":-2.4e-7,"MEAN_MOTION_DDOT":0},{"OBJECT_NAME":"O3B MPOWER F3","OBJECT_ID":"2023-059B","EPOCH":"2026-07-20T04:32:50.455104","CLASSIFICATION_TYPE":"U","MEAN_MOTION":5.00116453,"ECCENTRICITY":0.00066537,"INCLINATION":0.0635,"RA_OF_ASC_NODE":348.3055,"ARG_OF_PERICENTER":126.4687,"MEAN_ANOMALY":245.2919,"EPHEMERIS_TYPE":0,"NORAD_CAT_ID":56368,"ELEMENT_SET_NO":999,"REV_AT_EPOCH":5637,"BSTAR":0,"MEAN_MOTION_DOT":-2.4e-7,"MEAN_MOTION_DDOT":0},{"OBJECT_NAME":"O3B MPOWER F5","OBJECT_ID":"2023-175A","EPOCH":"2026-07-20T02:10:26.513760","CLASSIFICATION_TYPE":"U","MEAN_MOTION":5.00115866,"ECCENTRICITY":0.00055642,"INCLINATION":0.0529,"RA_OF_ASC_NODE":8.7025,"ARG_OF_PERICENTER":128.0008,"MEAN_ANOMALY":223.3373,"EPHEMERIS_TYPE":0,"NORAD_CAT_ID":58346,"ELEMENT_SET_NO":999,"REV_AT_EPOCH":5108,"BSTAR":0,"MEAN_MOTION_DOT":-2.4e-7,"MEAN_MOTION_DDOT":0},{"OBJECT_NAME":"O3B MPOWER F6","OBJECT_ID":"2023-175B","EPOCH":"2026-07-20T04:35:07.845792","CLASSIFICATION_TYPE":"U","MEAN_MOTION":5.00115809,"ECCENTRICITY":0.00044333,"INCLINATION":0.0544,"RA_OF_ASC_NODE":0.2777,"ARG_OF_PERICENTER":117.1043,"MEAN_ANOMALY":242.66,"EPHEMERIS_TYPE":0,"NORAD_CAT_ID":58347,"ELEMENT_SET_NO":999,"REV_AT_EPOCH":4999,"BSTAR":0,"MEAN_MOTION_DOT":-2.4e-7,"MEAN_MOTION_DDOT":0},{"OBJECT_NAME":"O3B MPOWER F7","OBJECT_ID":"2024-244A","EPOCH":"2026-07-20T06:10:45.331104","CLASSIFICATION_TYPE":"U","MEAN_MOTION":5.00115329,"ECCENTRICITY":0.00059268,"INCLINATION":0.0656,"RA_OF_ASC_NODE":341.8318,"ARG_OF_PERICENTER":132.4714,"MEAN_ANOMALY":245.7557,"EPHEMERIS_TYPE":0,"NORAD_CAT_ID":62362,"ELEMENT_SET_NO":999,"REV_AT_EPOCH":2817,"BSTAR":0,"MEAN_MOTION_DOT":-2.4e-7,"MEAN_MOTION_DDOT":0},{"OBJECT_NAME":"O3B MPOWER F8","OBJECT_ID":"2024-244B","EPOCH":"2026-07-20T00:35:19.512960","CLASSIFICATION_TYPE":"U","MEAN_MOTION":5.00115041,"ECCENTRICITY":0.00057059,"INCLINATION":0.015,"RA_OF_ASC_NODE":9.8175,"ARG_OF_PERICENTER":97.2297,"MEAN_ANOMALY":253.0121,"EPHEMERIS_TYPE":0,"NORAD_CAT_ID":62363,"ELEMENT_SET_NO":999,"REV_AT_EPOCH":2251,"BSTAR":0,"MEAN_MOTION_DOT":-2.4e-7,"MEAN_MOTION_DDOT":0},{"OBJECT_NAME":"O3B MPOWER F9","OBJECT_ID":"2025-153A","EPOCH":"2026-07-19T22:59:23.062848","CLASSIFICATION_TYPE":"U","MEAN_MOTION":5.00115653,"ECCENTRICITY":0.00067758,"INCLINATION":0.0618,"RA_OF_ASC_NODE":4.8084,"ARG_OF_PERICENTER":131.3346,"MEAN_ANOMALY":223.9077,"EPHEMERIS_TYPE":0,"NORAD_CAT_ID":64866,"ELEMENT_SET_NO":999,"REV_AT_EPOCH":2120,"BSTAR":0,"MEAN_MOTION_DOT":-2.4e-7,"MEAN_MOTION_DDOT":0},{"OBJECT_NAME":"O3B MPOWER F10","OBJECT_ID":"2025-153B","EPOCH":"2026-07-20T02:58:21.322560","CLASSIFICATION_TYPE":"U","MEAN_MOTION":5.00114922,"ECCENTRICITY":0.00025424,"INCLINATION":0.0588,"RA_OF_ASC_NODE":1.4301,"ARG_OF_PERICENTER":246.3045,"MEAN_ANOMALY":112.2353,"EPHEMERIS_TYPE":0,"NORAD_CAT_ID":64867,"ELEMENT_SET_NO":999,"REV_AT_EPOCH":2367,"BSTAR":0,"MEAN_MOTION_DOT":-2.4e-7,"MEAN_MOTION_DDOT":0}]}
