O3B MPOWER F1           
1 54755U 22174A   26201.12650814 -.00000024  00000+0  00000+0 0  9995
2 54755   0.0487 339.0583 0006668 149.8996 233.0644  5.00114762 67001
O3B MPOWER F2           
1 54756U 22174B   26201.09212670 -.00000024  00000+0  00000+0 0  9996
2 54756   0.0446 339.7573 0005773 133.0824 247.2182  5.00114967 67094
O3B MPOWER F4           
1 56367U 23059A   26200.75657009 -.00000024  00000+0  00000+0 0  9990
2 56367   0.0628 349.2150 0007735 131.7669 239.0909  5.00115356 60233
O3B MPOWER F3           
1 56368U 23059B   26201.18947286 -.00000024  00000+0  00000+0 0  9998
2 56368   0.0635 348.3055 0006653 126.4687 245.2919  5.00116453 56374
O3B MPOWER F5           
1 58346U 23175A   26201.09058465 -.00000024  00000+0  00000+0 0  9997
2 58346   0.0529   8.7025 0005564 128.0008 223.3373  5.00115866 51084
O3B MPOWER F6           
1 58347U 23175B   26201.19106303 -.00000024  00000+0  00000+0 0  9994
2 58347   0.0544   0.2777 0004433 117.1043 242.6600  5.00115809 49996
O3B MPOWER F7           
1 62362U 24244A   26201.25746911 -.00000024  00000+0  00000+0 0  9996
2 62362   0.0656 341.8318 0005926 132.4714 245.7557  5.00115329 28179
O3B MPOWER F8           
1 62363U 24244B   26201.02453140 -.00000024  00000+0  00000+0 0  9991
2 62363   0.0150   9.8175 0005705  97.2297 253.0121  5.00115041 22512
O3B MPOWER F9           
1 64866U 25153A   26200.95790582 -.00000024  00000+0  00000+0 0  9996
2 64866   0.0618   4.8084 0006775 131.3346 223.9077  5.00115653 21208
O3B MPOWER F10          
1 64867U 25153B   26201.12385790 -.00000024  00000+0  00000+0 0  9998
2 64867   0.0588   1.4301 0002542 246.3045 112.2353  5.00114922 23679
